{
"type": "FeatureCollection",
"name": "Points",
"crs": { "type": "name", "properties": { "name": "urn:ogc:def:crs:OGC:1.3:CRS84" } },
"features": [
{ "type": "Feature", "properties": { "amenity": "living room", "level": 0.0 }, "geometry": { "type": "Point", "coordinates": [ -1.567805044638543, 53.819084565077326 ] } },
{ "type": "Feature", "properties": { "amenity": "bedroom 1", "level": 0.0 }, "geometry": { "type": "Point", "coordinates": [ -1.567729804187531, 53.819069665978112 ] } },
{ "type": "Feature", "properties": { "amenity": "bedroom 2", "level": 0.0 }, "geometry": { "type": "Point", "coordinates": [ -1.56772905923257, 53.819005301869524 ] } },
{ "type": "Feature", "properties": { "amenity": "bathroom", "level": 0.0 }, "geometry": { "type": "Point", "coordinates": [ -1.567781355070798, 53.818990402770311 ] } },
{ "type": "Feature", "properties": { "amenity": "bedroom 3", "level": 0.0 }, "geometry": { "type": "Point", "coordinates": [ -1.567823370530572, 53.819009473617299 ] } },
{ "type": "Feature", "properties": { "amenity": "sauna", "level": 0.0 }, "geometry": { "type": "Point", "coordinates": [ -1.567831863017121, 53.819043890536477 ] } },
{ "type": "Feature", "properties": { "amenity": "kitchen", "level": 0.0 }, "geometry": { "type": "Point", "coordinates": [ -1.56778001415187, 53.819026309599408 ] } },
{ "type": "Feature", "properties": { "amenity": "front door", "level": 0.0 }, "geometry": { "type": "Point", "coordinates": [ -1.567839312566726, 53.819084416086334 ] } },
{ "type": "Feature", "properties": { "amenity": "washing machine", "level": 0.0 }, "geometry": { "type": "Point", "coordinates": [ -1.567760088424428, 53.81901001236848 ] } },
{ "type": "Feature", "properties": { "amenity": "themostat", "level": 0.0 }, "geometry": { "type": "Point", "coordinates": [ -1.567792702967536, 53.819024632680907 ] } },
{ "type": "Feature", "properties": { "amenity": "TV", "level": 0.0 }, "geometry": { "type": "Point", "coordinates": [ -1.567773584097438, 53.819102007872836 ] } }
]
}
